[{"OBJECT_NAME":"STARLINK-31383","OBJECT_ID":"2024-027F","EPOCH":"2026-03-09T22:43:39.025344","MEAN_MOTION":15.30187158,"ECCENTRICITY":9.921e-5,"INCLINATION":53.1602,"RA_OF_ASC_NODE":308.7172,"ARG_OF_PERICENTER":88.3968,"MEAN_ANOMALY":271.7146,"EPHEMERIS_TYPE":0,"CLASSIFICATION_TYPE":"U","NORAD_CAT_ID":58936,"ELEMENT_SET_NO":999,"REV_AT_EPOCH":11736,"BSTAR":6.547498e-6,"MEAN_MOTION_DOT":-1.65e-6,"MEAN_MOTION_DDOT":0},{"OBJECT_NAME":"SL-3 R\/B","OBJECT_ID":"1981-065B","EPOCH":"2026-03-09T21:58:16.284000","MEAN_MOTION":15.33300883,"ECCENTRICITY":0.00117648,"INCLINATION":97.6337,"RA_OF_ASC_NODE":111.1786,"ARG_OF_PERICENTER":10.529,"MEAN_ANOMALY":349.6196,"EPHEMERIS_TYPE":0,"CLASSIFICATION_TYPE":"U","NORAD_CAT_ID":12586,"ELEMENT_SET_NO":999,"REV_AT_EPOCH":43499,"BSTAR":0.00030084921,"MEAN_MOTION_DOT":9.62e-5,"MEAN_MOTION_DDOT":0}]
